start=new Date('2022-08-28T00:00:00.000Z').valueOf();
sats=[{"PERIAPSIS":"546.406","MEAN_ANOMALY":"266.9503","INCLINATION":"53.0560","REF_FRAME":"TEME","MEAN_MOTION_DDOT":"0.0000000000000","COUNTRY_CODE":"US","PERIOD":"95.592","OBJECT_ID":"2020-074BD","ARG_OF_PERICENTER":"93.1615","TLE_LINE1":"1 46790U 20074BD  22239.59347207  .00001381  00000-0  11152-3 0  9990","OBJECT_NAME":"STARLINK-1931","BSTAR":"0.00011152000000","CENTER_NAME":"EARTH","MEAN_ELEMENT_THEORY":"SGP4","SITE":"AFETR","SEMIMAJOR_AXIS":"6925.320","TIME_SYSTEM":"UTC","FILE":"3548882","REV_AT_EPOCH":"10222","EPHEMERIS_TYPE":"0","NORAD_CAT_ID":"46790","ELEMENT_SET_NO":"999","LAUNCH_DATE":"2020-10-24","EPOCH":"2022-08-27T14:14:35.986848","TLE_LINE2":"2 46790  53.0560 353.1027 0001125  93.1615 266.9503 15.06409167102229","MEAN_MOTION":"15.06409167","ECCENTRICITY":"0.00011250","RA_OF_ASC_NODE":"353.1027","APOAPSIS":"547.965","MEAN_MOTION_DOT":"0.00001381","DECAY_DATE":null,"GP_ID":"211135744","CLASSIFICATION_TYPE":"U","OBJECT_TYPE":"PAYLOAD","RCS_SIZE":"LARGE"},{"OBJECT_NAME":"STARLINK-1933","TLE_LINE1":"1 46791U 20074BE  22239.47553711  .00007528  00000-0  52358-3 0  9999","BSTAR":"0.00052358000000","CENTER_NAME":"EARTH","MEAN_ANOMALY":"271.6945","PERIAPSIS":"546.163","INCLINATION":"53.0556","REF_FRAME":"TEME","MEAN_MOTION_DDOT":"0.0000000000000","COUNTRY_CODE":"US","PERIOD":"95.591","ARG_OF_PERICENTER":"88.4212","OBJECT_ID":"2020-074BE","MEAN_MOTION":"15.06410159","ECCENTRICITY":"0.00014720","RA_OF_ASC_NODE":"353.6212","MEAN_MOTION_DOT":"0.00007528","APOAPSIS":"548.202","DECAY_DATE":null,"GP_ID":"211102991","CLASSIFICATION_TYPE":"U","OBJECT_TYPE":"PAYLOAD","RCS_SIZE":"LARGE","MEAN_ELEMENT_THEORY":"SGP4","SEMIMAJOR_AXIS":"6925.317","SITE":"AFETR","TIME_SYSTEM":"UTC","NORAD_CAT_ID":"46791","EPHEMERIS_TYPE":"0","FILE":"3548622","REV_AT_EPOCH":"10221","LAUNCH_DATE":"2020-10-24","ELEMENT_SET_NO":"999","TLE_LINE2":"2 46791  53.0556 353.6212 0001472  88.4212 271.6945 15.06410159102216","EPOCH":"2022-08-27T11:24:46.406304"},{"CENTER_NAME":"EARTH","BSTAR":"0.00014031000000","OBJECT_NAME":"STARLINK-1934","TLE_LINE1":"1 46792U 20074BF  22239.70128721  .00001809  00000-0  14031-3 0  9997","PERIOD":"95.592","ARG_OF_PERICENTER":"70.5468","OBJECT_ID":"2020-074BF","COUNTRY_CODE":"US","MEAN_MOTION_DDOT":"0.0000000000000","REF_FRAME":"TEME","INCLINATION":"53.0580","MEAN_ANOMALY":"289.5661","PERIAPSIS":"546.306","RCS_SIZE":"LARGE","OBJECT_TYPE":"PAYLOAD","CLASSIFICATION_TYPE":"U","GP_ID":"211134750","DECAY_DATE":null,"APOAPSIS":"548.110","MEAN_MOTION_DOT":"0.00001809","RA_OF_ASC_NODE":"342.5984","ECCENTRICITY":"0.00013030","MEAN_MOTION":"15.06401789","TLE_LINE2":"2 46792  53.0580 342.5984 0001303  70.5468 289.5661 15.06401789102385","EPOCH":"2022-08-27T16:49:51.214944","LAUNCH_DATE":"2020-10-24","ELEMENT_SET_NO":"999","NORAD_CAT_ID":"46792","REV_AT_EPOCH":"10238","FILE":"3548882","EPHEMERIS_TYPE":"0","SITE":"AFETR","TIME_SYSTEM":"UTC","SEMIMAJOR_AXIS":"6925.343","MEAN_ELEMENT_THEORY":"SGP4"},{"EPOCH":"2022-08-27T14:19:54.489216","TLE_LINE2":"2 46793  53.0565 353.0769 0001224  88.6405 271.4724 15.06405253102223","SITE":"AFETR","SEMIMAJOR_AXIS":"6925.332","TIME_SYSTEM":"UTC","MEAN_ELEMENT_THEORY":"SGP4","ELEMENT_SET_NO":"999","LAUNCH_DATE":"2020-10-24","FILE":"3548882","EPHEMERIS_TYPE":"0","REV_AT_EPOCH":"10222","NORAD_CAT_ID":"46793","DECAY_DATE":null,"APOAPSIS":"548.045","MEAN_MOTION_DOT":"0.00000004","OBJECT_TYPE":"PAYLOAD","RCS_SIZE":"LARGE","GP_ID":"211135000","CLASSIFICATION_TYPE":"U","MEAN_MOTION":"15.06405253","RA_OF_ASC_NODE":"353.0769","ECCENTRICITY":"0.00012240","OBJECT_ID":"2020-074BG","PERIOD":"95.592","ARG_OF_PERICENTER":"88.6405","COUNTRY_CODE":"US","MEAN_MOTION_DDOT":"0.0000000000000","MEAN_ANOMALY":"271.4724","PERIAPSIS":"546.350","REF_FRAME":"TEME","INCLINATION":"53.0565","CENTER_NAME":"EARTH","TLE_LINE1":"1 46793U 20074BG  22239.59715844  .00000004  00000-0  19163-4 0  9991","OBJECT_NAME":"STARLINK-1941","BSTAR":"0.00001916300000"},{"TLE_LINE2":"2 46794  53.0559 352.4536 0001519  78.1063 282.0096 15.06404162102254","EPOCH":"2022-08-27T17:41:36.450816","MEAN_ELEMENT_THEORY":"SGP4","SITE":"AFETR","TIME_SYSTEM":"UTC","SEMIMAJOR_AXIS":"6925.336","NORAD_CAT_ID":"46794","REV_AT_EPOCH":"10225","FILE":"3548882","EPHEMERIS_TYPE":"0","LAUNCH_DATE":"2020-10-24","ELEMENT_SET_NO":"999","MEAN_MOTION_DOT":"0.00002335","APOAPSIS":"548.253","DECAY_DATE":null,"GP_ID":"211135251","CLASSIFICATION_TYPE":"U","RCS_SIZE":"LARGE","OBJECT_TYPE":"PAYLOAD","MEAN_MOTION":"15.06404162","ECCENTRICITY":"0.00015190","RA_OF_ASC_NODE":"352.4536","COUNTRY_CODE":"US","MEAN_MOTION_DDOT":"0.0000000000000","PERIOD":"95.592","OBJECT_ID":"2020-074BH","ARG_OF_PERICENTER":"78.1063","PERIAPSIS":"546.149","MEAN_ANOMALY":"282.0096","INCLINATION":"53.0559","REF_FRAME":"TEME","CENTER_NAME":"EARTH","OBJECT_NAME":"STARLINK-1942","TLE_LINE1":"1 46794U 20074BH  22239.73722744  .00002335  00000-0  17556-3 0  9997","BSTAR":"0.00017556000000"},{"MEAN_MOTION":"15.06401128","RA_OF_ASC_NODE":"343.7549","ECCENTRICITY":"0.00014350","DECAY_DATE":null,"APOAPSIS":"548.204","MEAN_MOTION_DOT":"0.00001720","RCS_SIZE":"LARGE","OBJECT_TYPE":"PAYLOAD","GP_ID":"211102491","CLASSIFICATION_TYPE":"U","SITE":"AFETR","SEMIMAJOR_AXIS":"6925.345","TIME_SYSTEM":"UTC","MEAN_ELEMENT_THEORY":"SGP4","LAUNCH_DATE":"2020-10-24","ELEMENT_SET_NO":"999","NORAD_CAT_ID":"46796","REV_AT_EPOCH":"10234","FILE":"3548622","EPHEMERIS_TYPE":"0","TLE_LINE2":"2 46796  53.0558 343.7549 0001435  84.4814 275.6338 15.06401128102349","EPOCH":"2022-08-27T10:43:37.289568","OBJECT_NAME":"STARLINK-1944","TLE_LINE1":"1 46796U 20074BK  22239.44695937  .00001720  00000-0  13436-3 0  9990","BSTAR":"0.00013436000000","CENTER_NAME":"EARTH","MEAN_ANOMALY":"275.6338","PERIAPSIS":"546.216","REF_FRAME":"TEME","INCLINATION":"53.0558","OBJECT_ID":"2020-074BK","PERIOD":"95.592","ARG_OF_PERICENTER":"84.4814","MEAN_MOTION_DDOT":"0.0000000000000","COUNTRY_CODE":"US"},{"TLE_LINE1":"1 46798U 20074BM  22239.81046775  .00000452  00000-0  49253-4 0  9991","OBJECT_NAME":"STARLINK-1948","BSTAR":"0.00004925300000","CENTER_NAME":"EARTH","PERIAPSIS":"546.390","MEAN_ANOMALY":"279.8613","INCLINATION":"53.0550","REF_FRAME":"TEME","MEAN_MOTION_DDOT":"0.0000000000000","COUNTRY_CODE":"US","PERIOD":"95.592","OBJECT_ID":"2020-074BM","ARG_OF_PERICENTER":"80.2513","MEAN_MOTION":"15.06394676","ECCENTRICITY":"0.00012130","RA_OF_ASC_NODE":"7.1273","APOAPSIS":"548.070","MEAN_MOTION_DOT":"0.00000452","DECAY_DATE":null,"CLASSIFICATION_TYPE":"U","GP_ID":"211134257","RCS_SIZE":"LARGE","OBJECT_TYPE":"PAYLOAD","MEAN_ELEMENT_THEORY":"SGP4","SITE":"AFETR","SEMIMAJOR_AXIS":"6925.365","TIME_SYSTEM":"UTC","FILE":"3548882","REV_AT_EPOCH":"10205","EPHEMERIS_TYPE":"0","NORAD_CAT_ID":"46798","ELEMENT_SET_NO":"999","LAUNCH_DATE":"2020-10-24","EPOCH":"2022-08-27T19:27:04.413600","TLE_LINE2":"2 46798  53.0550   7.1273 0001213  80.2513 279.8613 15.06394676102051"},{"CENTER_NAME":"EARTH","OBJECT_NAME":"STARLINK-1777","TLE_LINE1":"1 47122U 20088A   22239.69853217  .00000031  00000-0  20990-4 0  9991","BSTAR":"0.00002099000000","ARG_OF_PERICENTER":"91.5222","PERIOD":"95.593","OBJECT_ID":"2020-088A","COUNTRY_CODE":"US","MEAN_MOTION_DDOT":"0.0000000000000","MEAN_ANOMALY":"268.5908","PERIAPSIS":"546.393","REF_FRAME":"TEME","INCLINATION":"53.0560","DECAY_DATE":null,"APOAPSIS":"548.098","MEAN_MOTION_DOT":"0.00000031","OBJECT_TYPE":"PAYLOAD","RCS_SIZE":"LARGE","CLASSIFICATION_TYPE":"U","GP_ID":"211136001","MEAN_MOTION":"15.06389643","RA_OF_ASC_NODE":"332.6043","ECCENTRICITY":"0.00012310","TLE_LINE2":"2 47122  53.0560 332.6043 0001231  91.5222 268.5908 15.06389643 97409","EPOCH":"2022-08-27T16:45:53.179488","SITE":"AFETR","SEMIMAJOR_AXIS":"6925.380","TIME_SYSTEM":"UTC","MEAN_ELEMENT_THEORY":"SGP4","LAUNCH_DATE":"2020-11-25","ELEMENT_SET_NO":"999","NORAD_CAT_ID":"47122","FILE":"3548882","EPHEMERIS_TYPE":"0","REV_AT_EPOCH":"9740"},{"PERIAPSIS":"546.301","MEAN_ANOMALY":"257.1114","REF_FRAME":"TEME","INCLINATION":"53.0564","PERIOD":"95.592","OBJECT_ID":"2020-088C","ARG_OF_PERICENTER":"103.0021","MEAN_MOTION_DDOT":"0.0000000000000","COUNTRY_CODE":"US","TLE_LINE1":"1 47124U 20088C   22239.68517174  .00003371  00000-0  24506-3 0  9997","OBJECT_NAME":"STARLINK-1785","BSTAR":"0.00024506000000","CENTER_NAME":"EARTH","SITE":"AFETR","TIME_SYSTEM":"UTC","SEMIMAJOR_AXIS":"6925.343","MEAN_ELEMENT_THEORY":"SGP4","ELEMENT_SET_NO":"999","LAUNCH_DATE":"2020-11-25","REV_AT_EPOCH":"9733","FILE":"3548882","EPHEMERIS_TYPE":"0","NORAD_CAT_ID":"47124","EPOCH":"2022-08-27T16:26:38.838336","TLE_LINE2":"2 47124  53.0564 337.6875 0001310 103.0021 257.1114 15.06401841 97337","MEAN_MOTION":"15.06401841","RA_OF_ASC_NODE":"337.6875","ECCENTRICITY":"0.00013100","DECAY_DATE":null,"APOAPSIS":"548.115","MEAN_MOTION_DOT":"0.00003371","OBJECT_TYPE":"PAYLOAD","RCS_SIZE":"LARGE","GP_ID":"211134787","CLASSIFICATION_TYPE":"U"},{"EPOCH":"2022-08-27T15:47:29.759712","TLE_LINE2":"2 47126  53.0559 332.7864 0001148  84.5532 275.5588 15.06398382 97408","SEMIMAJOR_AXIS":"6925.354","SITE":"AFETR","TIME_SYSTEM":"UTC","MEAN_ELEMENT_THEORY":"SGP4","ELEMENT_SET_NO":"999","LAUNCH_DATE":"2020-11-25","EPHEMERIS_TYPE":"0","FILE":"3548882","REV_AT_EPOCH":"9740","NORAD_CAT_ID":"47126","DECAY_DATE":null,"APOAPSIS":"548.014","MEAN_MOTION_DOT":"0.00000055","RCS_SIZE":"LARGE","OBJECT_TYPE":"PAYLOAD","CLASSIFICATION_TYPE":"U","GP_ID":"211135037","MEAN_MOTION":"15.06398382","RA_OF_ASC_NODE":"332.7864","ECCENTRICITY":"0.00011480","PERIOD":"95.592","ARG_OF_PERICENTER":"84.5532","OBJECT_ID":"2020-088E","MEAN_MOTION_DDOT":"0.0000000000000","COUNTRY_CODE":"US","MEAN_ANOMALY":"275.5588","PERIAPSIS":"546.423","REF_FRAME":"TEME","INCLINATION":"53.0559","CENTER_NAME":"EARTH","TLE_LINE1":"1 47126U 20088E   22239.65798333  .00000055  00000-0  22588-4 0  9999","OBJECT_NAME":"STARLINK-1812","BSTAR":"0.00002258800000"}];
